1 66206U 25244A   25341.87269979  .00096772  00000-0  23942-2 0  9992
2 66206  53.1574 299.1132 0002560  85.3729 274.7569 15.39675647  7562
